ONEWEB-0228             
1 48780U 21045P   24017.57236456 -.00000106  00000+0 -31450-3 0  9995
2 48780  87.8970  74.6770 0001933 104.3556 255.7789 13.15550698128411
